[Satellite]
VERSION=1.1
NAME=CHINASAT 11 (ZX 11)
NICKNAME=CHINASAT 11 (ZX 11)
TLE1=1 39157U 13020A   17185.85239434 -.00000297  00000-0  00000-0 0  9990
TLE2=2 39157   0.0282 250.2848 0002388  69.1159   8.5069  1.00273022 15360
